[{"OBJECT_NAME":"STARLINK-30844","OBJECT_ID":"2023-180B","EPOCH":"2026-03-03T09:59:47.904288","MEAN_MOTION":15.26751224,"ECCENTRICITY":0.0001268,"INCLINATION":43.0016,"RA_OF_ASC_NODE":88.2346,"ARG_OF_PERICENTER":263.3295,"MEAN_ANOMALY":96.7412,"EPHEMERIS_TYPE":0,"CLASSIFICATION_TYPE":"U","NORAD_CAT_ID":58403,"ELEMENT_SET_NO":999,"REV_AT_EPOCH":12654,"BSTAR":-0.00017987,"MEAN_MOTION_DOT":-5.083e-5,"MEAN_MOTION_DDOT":0},{"OBJECT_NAME":"STARLINK-30876","OBJECT_ID":"2023-180C","EPOCH":"2026-03-03T02:03:31.831776","MEAN_MOTION":15.26739438,"ECCENTRICITY":0.000177,"INCLINATION":43.0017,"RA_OF_ASC_NODE":90.0509,"ARG_OF_PERICENTER":268.8231,"MEAN_ANOMALY":91.2417,"EPHEMERIS_TYPE":0,"CLASSIFICATION_TYPE":"U","NORAD_CAT_ID":58404,"ELEMENT_SET_NO":999,"REV_AT_EPOCH":12661,"BSTAR":6.2802e-5,"MEAN_MOTION_DOT":1.425e-5,"MEAN_MOTION_DDOT":0},{"OBJECT_NAME":"STARLINK-30952","OBJECT_ID":"2023-180D","EPOCH":"2026-03-03T11:15:30.835296","MEAN_MOTION":15.26746163,"ECCENTRICITY":0.0001474,"INCLINATION":43.0056,"RA_OF_ASC_NODE":87.7679,"ARG_OF_PERICENTER":255.0619,"MEAN_ANOMALY":105.0069,"EPHEMERIS_TYPE":0,"CLASSIFICATION_TYPE":"U","NORAD_CAT_ID":58405,"ELEMENT_SET_NO":999,"REV_AT_EPOCH":12656,"BSTAR":1.8547e-5,"MEAN_MOTION_DOT":2.38e-6,"MEAN_MOTION_DDOT":0},{"OBJECT_NAME":"STARLINK-30925","OBJECT_ID":"2023-180E","EPOCH":"2026-03-03T03:31:02.770176","MEAN_MOTION":15.27546815,"ECCENTRICITY":8.79e-5,"INCLINATION":43.0024,"RA_OF_ASC_NODE":89.6458,"ARG_OF_PERICENTER":269.5162,"MEAN_ANOMALY":90.5589,"EPHEMERIS_TYPE":0,"CLASSIFICATION_TYPE":"U","NORAD_CAT_ID":58406,"ELEMENT_SET_NO":999,"REV_AT_EPOCH":12650,"BSTAR":0.00054998,"MEAN_MOTION_DOT":0.00014887,"MEAN_MOTION_DDOT":0},{"OBJECT_NAME":"STARLINK-30954","OBJECT_ID":"2023-180F","EPOCH":"2026-03-03T01:23:34.500480","MEAN_MOTION":15.26741033,"ECCENTRICITY":0.0001138,"INCLINATION":42.9986,"RA_OF_ASC_NODE":89.8332,"ARG_OF_PERICENTER":276.8059,"MEAN_ANOMALY":83.2663,"EPHEMERIS_TYPE":0,"CLASSIFICATION_TYPE":"U","NORAD_CAT_ID":58407,"ELEMENT_SET_NO":999,"REV_AT_EPOCH":12661,"BSTAR":7.5021e-5,"MEAN_MOTION_DOT":1.753e-5,"MEAN_MOTION_DDOT":0},{"OBJECT_NAME":"STARLINK-30906","OBJECT_ID":"2023-180G","EPOCH":"2026-03-03T12:00:00.998784","MEAN_MOTION":15.0663859,"ECCENTRICITY":0.0001211,"INCLINATION":43.0007,"RA_OF_ASC_NODE":90.0664,"ARG_OF_PERICENTER":316.5374,"MEAN_ANOMALY":177.3092,"EPHEMERIS_TYPE":0,"CLASSIFICATION_TYPE":"U","NORAD_CAT_ID":58408,"ELEMENT_SET_NO":999,"REV_AT_EPOCH":577,"BSTAR":0.11914,"MEAN_MOTION_DOT":0.01965431,"MEAN_MOTION_DDOT":0},{"OBJECT_NAME":"STARLINK-30940","OBJECT_ID":"2023-180H","EPOCH":"2026-03-03T00:48:47.314080","MEAN_MOTION":15.27575768,"ECCENTRICITY":0.0001452,"INCLINATION":43.0039,"RA_OF_ASC_NODE":305.0532,"ARG_OF_PERICENTER":272.4937,"MEAN_ANOMALY":87.5749,"EPHEMERIS_TYPE":0,"CLASSIFICATION_TYPE":"U","NORAD_CAT_ID":58409,"ELEMENT_SET_NO":999,"REV_AT_EPOCH":12831,"BSTAR":-6.0222e-5,"MEAN_MOTION_DOT":-1.919e-5,"MEAN_MOTION_DDOT":0},{"OBJECT_NAME":"STARLINK-30933","OBJECT_ID":"2023-180J","EPOCH":"2026-03-03T01:05:13.303968","MEAN_MOTION":15.27583377,"ECCENTRICITY":1.6e-5,"INCLINATION":42.9965,"RA_OF_ASC_NODE":304.2722,"ARG_OF_PERICENTER":346.9082,"MEAN_ANOMALY":13.1765,"EPHEMERIS_TYPE":0,"CLASSIFICATION_TYPE":"U","NORAD_CAT_ID":58410,"ELEMENT_SET_NO":999,"REV_AT_EPOCH":12832,"BSTAR":5.35e-5,"MEAN_MOTION_DOT":1.211e-5,"MEAN_MOTION_DDOT":0},{"OBJECT_NAME":"STARLINK-30919","OBJECT_ID":"2023-180K","EPOCH":"2026-03-03T12:00:00.998784","MEAN_MOTION":15.26712327,"ECCENTRICITY":0.0001364,"INCLINATION":42.9997,"RA_OF_ASC_NODE":87.0382,"ARG_OF_PERICENTER":263.0788,"MEAN_ANOMALY":108.4291,"EPHEMERIS_TYPE":0,"CLASSIFICATION_TYPE":"U","NORAD_CAT_ID":58411,"ELEMENT_SET_NO":999,"REV_AT_EPOCH":581,"BSTAR":0.0024856,"MEAN_MOTION_DOT":0.00066965,"MEAN_MOTION_DDOT":0},{"OBJECT_NAME":"STARLINK-30924","OBJECT_ID":"2023-180L","EPOCH":"2026-03-03T00:47:55.332384","MEAN_MOTION":15.32098738,"ECCENTRICITY":0.0001954,"INCLINATION":43.0077,"RA_OF_ASC_NODE":302.4403,"ARG_OF_PERICENTER":262.6454,"MEAN_ANOMALY":97.4177,"EPHEMERIS_TYPE":0,"CLASSIFICATION_TYPE":"U","NORAD_CAT_ID":58412,"ELEMENT_SET_NO":999,"REV_AT_EPOCH":12834,"BSTAR":-4.4121e-6,"MEAN_MOTION_DOT":-4.15e-6,"MEAN_MOTION_DDOT":0},{"OBJECT_NAME":"STARLINK-30931","OBJECT_ID":"2023-180M","EPOCH":"2026-03-03T12:00:00.998784","MEAN_MOTION":15.26677583,"ECCENTRICITY":0.0001183,"INCLINATION":43.0003,"RA_OF_ASC_NODE":76.1696,"ARG_OF_PERICENTER":242.5888,"MEAN_ANOMALY":41.598,"EPHEMERIS_TYPE":0,"CLASSIFICATION_TYPE":"U","NORAD_CAT_ID":58413,"ELEMENT_SET_NO":999,"REV_AT_EPOCH":571,"BSTAR":0.0036137,"MEAN_MOTION_DOT":0.00097782,"MEAN_MOTION_DDOT":0},{"OBJECT_NAME":"STARLINK-30922","OBJECT_ID":"2023-180N","EPOCH":"2026-03-03T03:31:18.418944","MEAN_MOTION":15.26657313,"ECCENTRICITY":0.0001146,"INCLINATION":43.0031,"RA_OF_ASC_NODE":89.6332,"ARG_OF_PERICENTER":299.6127,"MEAN_ANOMALY":60.461,"EPHEMERIS_TYPE":0,"CLASSIFICATION_TYPE":"U","NORAD_CAT_ID":58414,"ELEMENT_SET_NO":999,"REV_AT_EPOCH":12662,"BSTAR":0.00086306,"MEAN_MOTION_DOT":0.00022904,"MEAN_MOTION_DDOT":0},{"OBJECT_NAME":"STARLINK-30949","OBJECT_ID":"2023-180P","EPOCH":"2026-03-03T03:21:40.358880","MEAN_MOTION":15.27585302,"ECCENTRICITY":0.0001208,"INCLINATION":43.0023,"RA_OF_ASC_NODE":89.5657,"ARG_OF_PERICENTER":257.9682,"MEAN_ANOMALY":102.1034,"EPHEMERIS_TYPE":0,"CLASSIFICATION_TYPE":"U","NORAD_CAT_ID":58415,"ELEMENT_SET_NO":999,"REV_AT_EPOCH":12662,"BSTAR":-1.1626e-5,"MEAN_MOTION_DOT":-5.82e-6,"MEAN_MOTION_DDOT":0},{"OBJECT_NAME":"STARLINK-30967","OBJECT_ID":"2023-180Q","EPOCH":"2026-03-03T01:40:44.249376","MEAN_MOTION":15.26747174,"ECCENTRICITY":0.0001164,"INCLINATION":43.0016,"RA_OF_ASC_NODE":89.9124,"ARG_OF_PERICENTER":212.8476,"MEAN_ANOMALY":147.2303,"EPHEMERIS_TYPE":0,"CLASSIFICATION_TYPE":"U","NORAD_CAT_ID":58416,"ELEMENT_SET_NO":999,"REV_AT_EPOCH":12661,"BSTAR":0.00011439,"MEAN_MOTION_DOT":2.81e-5,"MEAN_MOTION_DDOT":0},{"OBJECT_NAME":"STARLINK-30955","OBJECT_ID":"2023-180R","EPOCH":"2026-03-03T12:00:00.998784","MEAN_MOTION":15.27540464,"ECCENTRICITY":5.61e-5,"INCLINATION":42.9993,"RA_OF_ASC_NODE":87.0782,"ARG_OF_PERICENTER":275.7724,"MEAN_ANOMALY":104.2164,"EPHEMERIS_TYPE":0,"CLASSIFICATION_TYPE":"U","NORAD_CAT_ID":58417,"ELEMENT_SET_NO":999,"REV_AT_EPOCH":582,"BSTAR":0.0024875,"MEAN_MOTION_DOT":0.00068745,"MEAN_MOTION_DDOT":0},{"OBJECT_NAME":"STARLINK-30895","OBJECT_ID":"2023-180S","EPOCH":"2026-03-03T09:23:31.470144","MEAN_MOTION":15.27559007,"ECCENTRICITY":0.0001365,"INCLINATION":43.0021,"RA_OF_ASC_NODE":88.0368,"ARG_OF_PERICENTER":276.0771,"MEAN_ANOMALY":83.9925,"EPHEMERIS_TYPE":0,"CLASSIFICATION_TYPE":"U","NORAD_CAT_ID":58418,"ELEMENT_SET_NO":999,"REV_AT_EPOCH":12655,"BSTAR":-3.2757e-5,"MEAN_MOTION_DOT":-1.163e-5,"MEAN_MOTION_DDOT":0},{"OBJECT_NAME":"STARLINK-30917","OBJECT_ID":"2023-180T","EPOCH":"2026-03-03T03:08:06.671328","MEAN_MOTION":15.27546752,"ECCENTRICITY":0.0001219,"INCLINATION":43.0037,"RA_OF_ASC_NODE":340.7982,"ARG_OF_PERICENTER":253.2528,"MEAN_ANOMALY":106.819,"EPHEMERIS_TYPE":0,"CLASSIFICATION_TYPE":"U","NORAD_CAT_ID":58419,"ELEMENT_SET_NO":999,"REV_AT_EPOCH":12789,"BSTAR":5.5288e-5,"MEAN_MOTION_DOT":1.258e-5,"MEAN_MOTION_DDOT":0}]
