STARLINK-30844          
1 58403U 23180B   26062.41652667 -.00005083  00000+0 -17987-3 0  9999
2 58403  43.0016  88.2346 0001268 263.3295  96.7412 15.26751224126546
STARLINK-30876          
1 58404U 23180C   26062.08578509  .00001425  00000+0  62802-4 0  9996
2 58404  43.0017  90.0509 0001770 268.8231  91.2417 15.26739438126614
STARLINK-30952          
1 58405U 23180D   26062.46910689  .00000238  00000+0  18547-4 0  9996
2 58405  43.0056  87.7679 0001474 255.0619 105.0069 15.26746163126562
STARLINK-30925          
1 58406U 23180E   26062.14655984  .00014887  00000+0  54998-3 0  9990
2 58406  43.0024  89.6458 0000879 269.5162  90.5589 15.27546815126507
STARLINK-30954          
1 58407U 23180F   26062.05803820  .00001753  00000+0  75021-4 0  9994
2 58407  42.9986  89.8332 0001138 276.8059  83.2663 15.26741033126613
STARLINK-30906          
1 58408U 23180G   26062.50001156  .01965431  00000+0  11914+0 0  9996
2 58408  43.0007  90.0664 0001211 316.5374 177.3092 15.06638590  5771
STARLINK-30940          
1 58409U 23180H   26062.03388095 -.00001919  00000+0 -60222-4 0  9999
2 58409  43.0039 305.0532 0001452 272.4937  87.5749 15.27575768128319
STARLINK-30933          
1 58410U 23180J   26062.04529287  .00001211  00000+0  53500-4 0  9996
2 58410  42.9965 304.2722 0000160 346.9082  13.1765 15.27583377128321
STARLINK-30919          
1 58411U 23180K   26062.50001156  .00066965  00000+0  24856-2 0  9995
2 58411  42.9997  87.0382 0001364 263.0788 108.4291 15.26712327  5812
STARLINK-30924          
1 58412U 23180L   26062.03327931 -.00000415  00000+0 -44121-5 0  9996
2 58412  43.0077 302.4403 0001954 262.6454  97.4177 15.32098738128346
STARLINK-30931          
1 58413U 23180M   26062.50001156  .00097782  00000+0  36137-2 0  9993
2 58413  43.0003  76.1696 0001183 242.5888  41.5980 15.26677583  5718
STARLINK-30922          
1 58414U 23180N   26062.14674096  .00022904  00000+0  86306-3 0  9991
2 58414  43.0031  89.6332 0001146 299.6127  60.4610 15.26657313126627
STARLINK-30949          
1 58415U 23180P   26062.14005045 -.00000582  00000+0 -11626-4 0  9998
2 58415  43.0023  89.5657 0001208 257.9682 102.1034 15.27585302126623
STARLINK-30967          
1 58416U 23180Q   26062.06995659  .00002810  00000+0  11439-3 0  9994
2 58416  43.0016  89.9124 0001164 212.8476 147.2303 15.26747174126615
STARLINK-30955          
1 58417U 23180R   26062.50001156  .00068745  00000+0  24875-2 0  9990
2 58417  42.9993  87.0782 0000561 275.7724 104.2164 15.27540464  5822
STARLINK-30895          
1 58418U 23180S   26062.39133646 -.00001163  00000+0 -32757-4 0  9991
2 58418  43.0021  88.0368 0001365 276.0771  83.9925 15.27559007126552
STARLINK-30917          
1 58419U 23180T   26062.13063277  .00001258  00000+0  55288-4 0  9993
2 58419  43.0037 340.7982 0001219 253.2528 106.8190 15.27546752127895
